[{"OBJECT_NAME":"STARLINK-6368","OBJECT_ID":"2023-094S","EPOCH":"2026-03-09T22:00:01.999584","MEAN_MOTION":15.12976529,"ECCENTRICITY":0.0001762,"INCLINATION":43.0008,"RA_OF_ASC_NODE":28.4054,"ARG_OF_PERICENTER":256.3705,"MEAN_ANOMALY":50.16,"EPHEMERIS_TYPE":0,"CLASSIFICATION_TYPE":"U","NORAD_CAT_ID":57234,"ELEMENT_SET_NO":999,"REV_AT_EPOCH":567,"BSTAR":0.069359819,"MEAN_MOTION_DOT":0.01355316,"MEAN_MOTION_DDOT":0},{"OBJECT_NAME":"CZ-6A DEB","OBJECT_ID":"2022-151CX","EPOCH":"2026-03-09T21:16:17.872608","MEAN_MOTION":15.11183333,"ECCENTRICITY":0.00647114,"INCLINATION":99.0278,"RA_OF_ASC_NODE":217.0514,"ARG_OF_PERICENTER":197.6419,"MEAN_ANOMALY":162.256,"EPHEMERIS_TYPE":0,"CLASSIFICATION_TYPE":"U","NORAD_CAT_ID":54352,"ELEMENT_SET_NO":999,"REV_AT_EPOCH":10537,"BSTAR":0.0059033487,"MEAN_MOTION_DOT":0.00105485,"MEAN_MOTION_DDOT":0}]
